{"type": "FeatureCollection", "features": [ {"type": "Feature", "properties": {"norad_id": 37336, "name": "COSMOS 2251 DEB", "group": "cosmos-2251-debris", "lat": -58.46063172898016, "lon": 172.22286813799954, "alt_km": 808.5820907537209, "timestamp": "2025-12-16T10:53:45.868815+00:00", "meta": {"OBJECT_NAME": "COSMOS 2251 DEB", "OBJECT_ID": "1993-036BLC", "EPOCH": "2025-12-15T05:16:51.375648", "MEAN_MOTION": 14.32759632, "ECCENTRICITY": 0.00289377, "INCLINATION": 74.0413, "RA_OF_ASC_NODE": 326.6845, "ARG_OF_PERICENTER": 43.6772, "MEAN_ANOMALY": 316.6662, "EPHEMERIS_TYPE": 0, "CLASSIFICATION_TYPE": "U", "NORAD_CAT_ID": 37336, "ELEMENT_SET_NO": 999, "REV_AT_EPOCH": 65155, "BSTAR": 8.3796198e-05, "MEAN_MOTION_DOT": 2.03e-06, "MEAN_MOTION_DDOT": 0}, "tle": {"line1": "1 37336U 93036BLC 25349.22003907  .00000203  00000+0  83796-4 0  9990", "line2": "2 37336  74.0413 326.6845 0028937  43.6772 316.6662 14.32759632651559"}}, "geometry": {"type": "Point", "coordinates": [172.22286813799954, -58.46063172898016]}}, {"type": "Feature", "properties": {"norad_id": 37340, "name": "COSMOS 2251 DEB", "group": "cosmos-2251-debris", "lat": 20.58843270593694, "lon": 84.14539809754794, "alt_km": 779.7295058153904, "timestamp": "2025-12-16T10:53:45.868825+00:00", "meta": {"OBJECT_NAME": "COSMOS 2251 DEB", "OBJECT_ID": "1993-036BLG", "EPOCH": "2025-12-14T11:22:35.426496", "MEAN_MOTION": 14.36925814, "ECCENTRICITY": 0.00178426, "INCLINATION": 74.0254, "RA_OF_ASC_NODE": 273.9638, "ARG_OF_PERICENTER": 8.4859, "MEAN_ANOMALY": 351.6592, "EPHEMERIS_TYPE": 0, "CLASSIFICATION_TYPE": "U", "NORAD_CAT_ID": 37340, "ELEMENT_SET_NO": 999, "REV_AT_EPOCH": 84092, "BSTAR": 0.00025986643, "MEAN_MOTION_DOT": 7.44e-06, "MEAN_MOTION_DDOT": 0}, "tle": {"line1": "1 37340U 93036BLG 25348.47402114  .00000744  00000+0  25987-3 0  9991", "line2": "2 37340  74.0254 273.9638 0017842   8.4859 351.6592 14.36925814840922"}}, "geometry": {"type": "Point", "coordinates": [84.14539809754794, 20.58843270593694]}}, {"type": "Feature", "properties": {"norad_id": 37483, "name": "COSMOS 2251 DEB", "group": "cosmos-2251-debris", "lat": -0.1284418864393292, "lon": 136.36950687787208, "alt_km": 686.1396618099379, "timestamp": "2025-12-16T10:53:45.868835+00:00", "meta": {"OBJECT_NAME": "COSMOS 2251 DEB", "OBJECT_ID": "1993-036BLL", "EPOCH": "2025-12-14T17:18:58.819968", "MEAN_MOTION": 14.43559651, "ECCENTRICITY": 0.00932179, "INCLINATION": 73.9731, "RA_OF_ASC_NODE": 139.6377, "ARG_OF_PERICENTER": 345.6463, "MEAN_ANOMALY": 14.2047, "EPHEMERIS_TYPE": 0, "CLASSIFICATION_TYPE": "U", "NORAD_CAT_ID": 37483, "ELEMENT_SET_NO": 999, "REV_AT_EPOCH": 65308, "BSTAR": 0.00025126319, "MEAN_MOTION_DOT": 8.68e-06, "MEAN_MOTION_DDOT": 0}, "tle": {"line1": "1 37483U 93036BLL 25348.72151412  .00000868  00000+0  25126-3 0  9991", "line2": "2 37483  73.9731 139.6377 0093217 345.6463  14.2047 14.43559651653089"}}, "geometry": {"type": "Point", "coordinates": [136.36950687787208, -0.1284418864393292]}}, {"type": "Feature", "properties": {"norad_id": 37484, "name": "COSMOS 2251 DEB", "group": "cosmos-2251-debris", "lat": -42.72078730397956, "lon": 37.016306372709906, "alt_km": 731.0646013674741, "timestamp": "2025-12-16T10:53:45.868845+00:00", "meta": {"OBJECT_NAME": "COSMOS 2251 DEB", "OBJECT_ID": "1993-036BLM", "EPOCH": "2025-12-15T22:30:27.179712", "MEAN_MOTION": 14.41798427, "ECCENTRICITY": 0.00396359, "INCLINATION": 73.8232, "RA_OF_ASC_NODE": 202.4364, "ARG_OF_PERICENTER": 236.871, "MEAN_ANOMALY": 189.8739, "EPHEMERIS_TYPE": 0, "CLASSIFICATION_TYPE": "U", "NORAD_CAT_ID": 37484, "ELEMENT_SET_NO": 999, "REV_AT_EPOCH": 65425, "BSTAR": 0.00048864648, "MEAN_MOTION_DOT": 1.583e-05, "MEAN_MOTION_DDOT": 0}, "tle": {"line1": "1 37484U 93036BLM 25349.93781458  .00001583  00000+0  48865-3 0  9995", "line2": "2 37484  73.8232 202.4364 0039635 236.8710 189.8739 14.41798427654251"}}, "geometry": {"type": "Point", "coordinates": [37.016306372709906, -42.72078730397956]}}, {"type": "Feature", "properties": {"norad_id": 37486, "name": "COSMOS 2251 DEB", "group": "cosmos-2251-debris", "lat": 67.28789462846677, "lon": -116.50190542908268, "alt_km": 946.8212482741301, "timestamp": "2025-12-16T10:53:45.868855+00:00", "meta": {"OBJECT_NAME": "COSMOS 2251 DEB", "OBJECT_ID": "1993-036BLP", "EPOCH": "2025-12-15T02:58:15.187296", "MEAN_MOTION": 14.1334654, "ECCENTRICITY": 0.02298009, "INCLINATION": 73.6912, "RA_OF_ASC_NODE": 110.2876, "ARG_OF_PERICENTER": 337.987, "MEAN_ANOMALY": 200.3522, "EPHEMERIS_TYPE": 0, "CLASSIFICATION_TYPE": "U", "NORAD_CAT_ID": 37486, "ELEMENT_SET_NO": 999, "REV_AT_EPOCH": 63403, "BSTAR": 0.0015140816, "MEAN_MOTION_DOT": 3.628e-05, "MEAN_MOTION_DDOT": 0}, "tle": {"line1": "1 37486U 93036BLP 25349.12378689  .00003628  00000+0  15141-2 0  9998", "line2": "2 37486  73.6912 110.2876 0229800 337.9870 200.3522 14.13346540634032"}}, "geometry": {"type": "Point", "coordinates": [-116.50190542908268, 67.28789462846677]}}, {"type": "Feature", "properties": {"norad_id": 37487, "name": "COSMOS 2251 DEB", "group": "cosmos-2251-debris", "lat": 21.43047402622504, "lon": -168.7888531208629, "alt_km": 606.9614573928284, "timestamp": "2025-12-16T10:53:45.868866+00:00", "meta": {"OBJECT_NAME": "COSMOS 2251 DEB", "OBJECT_ID": "1993-036BLQ", "EPOCH": "2025-12-12T06:17:24.389376", "MEAN_MOTION": 14.80982589, "ECCENTRICITY": 0.00255931, "INCLINATION": 73.9026, "RA_OF_ASC_NODE": 193.0379, "ARG_OF_PERICENTER": 31.2136, "MEAN_ANOMALY": 329.0553, "EPHEMERIS_TYPE": 0, "CLASSIFICATION_TYPE": "U", "NORAD_CAT_ID": 37487, "ELEMENT_SET_NO": 999, "REV_AT_EPOCH": 81238, "BSTAR": 0.0042593386, "MEAN_MOTION_DOT": 0.00033302, "MEAN_MOTION_DDOT": 0}, "tle": {"line1": "1 37487U 93036BLQ 25346.26208784  .00033302  00000+0  42593-2 0  9992", "line2": "2 37487  73.9026 193.0379 0025593  31.2136 329.0553 14.80982589812383"}}, "geometry": {"type": "Point", "coordinates": [-168.7888531208629, 21.43047402622504]}}, {"type": "Feature", "properties": {"norad_id": 37491, "name": "COSMOS 2251 DEB", "group": "cosmos-2251-debris", "lat": 14.47785399135724, "lon": 83.5910779810064, "alt_km": 995.8626129322738, "timestamp": "2025-12-16T10:53:45.868877+00:00", "meta": {"OBJECT_NAME": "COSMOS 2251 DEB", "OBJECT_ID": "1993-036BLU", "EPOCH": "2025-12-14T02:11:55.979232", "MEAN_MOTION": 13.75296851, "ECCENTRICITY": 0.03172273, "INCLINATION": 73.9058, "RA_OF_ASC_NODE": 271.825, "ARG_OF_PERICENTER": 264.6635, "MEAN_ANOMALY": 91.8222, "EPHEMERIS_TYPE": 0, "CLASSIFICATION_TYPE": "U", "NORAD_CAT_ID": 37491, "ELEMENT_SET_NO": 999, "REV_AT_EPOCH": 55765, "BSTAR": 0.0013651855, "MEAN_MOTION_DOT": 1.865e-05, "MEAN_MOTION_DDOT": 0}, "tle": {"line1": "1 37491U 93036BLU 25348.09162013  .00001865  00000+0  13652-2 0  9997", "line2": "2 37491  73.9058 271.8250 0317227 264.6635  91.8222 13.75296851557656"}}, "geometry": {"type": "Point", "coordinates": [83.5910779810064, 14.47785399135724]}}, {"type": "Feature", "properties": {"norad_id": 37498, "name": "COSMOS 2251 DEB", "group": "cosmos-2251-debris", "lat": -16.664562106931903, "lon": 1.772613279571275, "alt_km": 708.2531486002636, "timestamp": "2025-12-16T10:53:45.868887+00:00", "meta": {"OBJECT_NAME": "COSMOS 2251 DEB", "OBJECT_ID": "1993-036BMB", "EPOCH": "2025-12-14T06:49:44.179968", "MEAN_MOTION": 14.54780296, "ECCENTRICITY": 0.00119843, "INCLINATION": 74.0356, "RA_OF_ASC_NODE": 180.9606, "ARG_OF_PERICENTER": 244.0042, "MEAN_ANOMALY": 115.9887, "EPHEMERIS_TYPE": 0, "CLASSIFICATION_TYPE": "U", "NORAD_CAT_ID": 37498, "ELEMENT_SET_NO": 999, "REV_AT_EPOCH": 65377, "BSTAR": 0.00071543258, "MEAN_MOTION_DOT": 3.042e-05, "MEAN_MOTION_DDOT": 0}, "tle": {"line1": "1 37498U 93036BMB 25348.28453912  .00003042  00000+0  71543-3 0  9999", "line2": "2 37498  74.0356 180.9606 0011984 244.0042 115.9887 14.54780296653770"}}, "geometry": {"type": "Point", "coordinates": [1.772613279571275, -16.664562106931903]}}, {"type": "Feature", "properties": {"norad_id": 37499, "name": "COSMOS 2251 DEB", "group": "cosmos-2251-debris", "lat": 40.89700404225315, "lon": 121.03823451482289, "alt_km": 779.1005917439579, "timestamp": "2025-12-16T10:53:45.868897+00:00", "meta": {"OBJECT_NAME": "COSMOS 2251 DEB", "OBJECT_ID": "1993-036BMC", "EPOCH": "2025-12-14T04:41:48.099840", "MEAN_MOTION": 14.3434392, "ECCENTRICITY": 0.00269884, "INCLINATION": 74.0378, "RA_OF_ASC_NODE": 319.5242, "ARG_OF_PERICENTER": 35.0872, "MEAN_ANOMALY": 325.2051, "EPHEMERIS_TYPE": 0, "CLASSIFICATION_TYPE": "U", "NORAD_CAT_ID": 37499, "ELEMENT_SET_NO": 999, "REV_AT_EPOCH": 85170, "BSTAR": 0.00022678188, "MEAN_MOTION_DOT": 6.14e-06, "MEAN_MOTION_DDOT": 0}, "tle": {"line1": "1 37499U 93036BMC 25348.19569560  .00000614  00000+0  22678-3 0  9994", "line2": "2 37499  74.0378 319.5242 0026988  35.0872 325.2051 14.34343920851709"}}, "geometry": {"type": "Point", "coordinates": [121.03823451482289, 40.89700404225315]}}, {"type": "Feature", "properties": {"norad_id": 37528, "name": "COSMOS 2251 DEB", "group": "cosmos-2251-debris", "lat": 30.278546006900317, "lon": -74.46338536623543, "alt_km": 728.1830899905763, "timestamp": "2025-12-16T10:53:45.868908+00:00", "meta": {"OBJECT_NAME": "COSMOS 2251 DEB", "OBJECT_ID": "1993-036BNH", "EPOCH": "2025-12-15T01:06:28.524672", "MEAN_MOTION": 14.50529605, "ECCENTRICITY": 0.0021174, "INCLINATION": 74.0366, "RA_OF_ASC_NODE": 117.8019, "ARG_OF_PERICENTER": 265.761, "MEAN_ANOMALY": 94.113, "EPHEMERIS_TYPE": 0, "CLASSIFICATION_TYPE": "U", "NORAD_CAT_ID": 37528, "ELEMENT_SET_NO": 999, "REV_AT_EPOCH": 85964, "BSTAR": 0.00041051678, "MEAN_MOTION_DOT": 1.584e-05, "MEAN_MOTION_DDOT": 0}, "tle": {"line1": "1 37528U 93036BNH 25349.04616348  .00001584  00000+0  41052-3 0  9993", "line2": "2 37528  74.0366 117.8019 0021174 265.7610  94.1130 14.50529605859649"}}, "geometry": {"type": "Point", "coordinates": [-74.46338536623543, 30.278546006900317]}}]}